*******************************************************************************
Ephemeris / WWW_USER Tue Mar 11 05:43:33 2025 Pasadena, USA      / Horizons    
*******************************************************************************
Target body name: Hale-Bopp (C/1995 O1)           {source: JPL#226}
Center body name: Earth (399)                     {source: DE441}
Center-site name: Gemini South Obs., Cerro Pachon
*******************************************************************************
Start time      : A.D. 2018-Aug-07 22:22:00.0000 UT      
Stop  time      : A.D. 2018-Aug-08 11:14:00.0000 UT      
Step-size       : 1 minutes
*******************************************************************************
Target pole/equ : undefined
Target radii    : 30. km                                                       
Center geodetic : 289.2634, -30.2406227, 2.71233  {E-lon(deg),Lat(deg),Alt(km)}
Center cylindric: 289.2634,5517.21435,-3194.81213 {E-lon(deg),Dxy(km),Dz(km)}
Center pole/equ : ITRF93                          {East-longitude positive}
Center radii    : 6378.137, 6378.137, 6356.752 km {Equator_a, b, pole_c}       
Target primary  : Sun
Vis. interferer : MOON (R_eq= 1737.400) km        {source: DE441}
Rel. light bend : Sun                             {source: DE441}
Rel. lght bnd GM: 1.3271E+11 km^3/s^2                                          
Small-body perts: Yes                             {source: SB441-N16}
Atmos refraction: NO (AIRLESS)
RA format       : HMS
Time format     : CAL 
Calendar mode   : Mixed Julian/Gregorian
RTS-only print  : NO       
EOP file        : eop.250310.p250606                                           
EOP coverage    : DATA-BASED 1962-JAN-20 TO 2025-MAR-10. PREDICTS-> 2025-JUN-05
Units conversion: 1 au= 149597870.700 km, c= 299792.458 km/s, 1 day= 86400.0 s 
Table cut-offs 1: Elevation (-90.0deg=NO ),Airmass (>38.000=NO), Daylight (YES)
Table cut-offs 2: Solar elongation (  0.0,180.0=NO ),Local Hour Angle( 0.0=NO )
Table cut-offs 3: RA/DEC angular rate (     0.0=NO )                           
*******************************************************************************
Initial IAU76/J2000 heliocentric ecliptic osculating elements (au, days, deg.):
  EPOCH=  2459837.5 ! 2022-Sep-15.0000000 (TDB)    RMSW= n.a.                  
   EC= .9949810027633206   QR= .890537663547794    TP= 2450537.1349071441      
   OM= 282.7334213961641   W= 130.4146670659176    IN= 89.28759424740302       
  Equivalent ICRF heliocentric cartesian coordinates (au, au/d):
   X= 3.907631452214869E+00  Y=-1.373895334060347E+00  Z=-4.624358508575312E+01
  VX= 3.778244409519935E-04 VY=-5.803173067116371E-04 VZ=-3.255716412104052E-03
Comet physical (GM= km^3/s^2; RAD= km):                                        
   GM= n.a.                RAD= 30.                                            
   M1=  4.8      M2=  n.a.     k1=  4.     k2= n.a.     PHCOF= n.a.            
*******************************************************************************
 Date__(UT)__HR:MN     R.A._________(ICRF)_________DEC
******************************************************
$$SOE
 2018-Aug-08 02:30     00 14 15.345943 -86 21 32.53585
 2018-Aug-08 02:31     00 14 15.305381 -86 21 32.58084
 2018-Aug-08 02:32     00 14 15.264816 -86 21 32.62582
 2018-Aug-08 02:33     00 14 15.224246 -86 21 32.67080
 2018-Aug-08 02:34     00 14 15.183671 -86 21 32.71577
 2018-Aug-08 02:35     00 14 15.143092 -86 21 32.76075
 2018-Aug-08 02:36     00 14 15.102508 -86 21 32.80573
 2018-Aug-08 02:37     00 14 15.061921 -86 21 32.85070
 2018-Aug-08 02:38     00 14 15.021328 -86 21 32.89568
 2018-Aug-08 02:39     00 14 14.980731 -86 21 32.94065
 2018-Aug-08 02:40     00 14 14.940130 -86 21 32.98562
 2018-Aug-08 02:41     00 14 14.899525 -86 21 33.03059
 2018-Aug-08 02:42     00 14 14.858915 -86 21 33.07556
 2018-Aug-08 02:43     00 14 14.818300 -86 21 33.12052
 2018-Aug-08 02:44     00 14 14.777681 -86 21 33.16549
 2018-Aug-08 02:45     00 14 14.737058 -86 21 33.21045
 2018-Aug-08 02:46     00 14 14.696430 -86 21 33.25542
 2018-Aug-08 02:47     00 14 14.655798 -86 21 33.30038
 2018-Aug-08 02:48     00 14 14.615162 -86 21 33.34534
 2018-Aug-08 02:49     00 14 14.574521 -86 21 33.39030
 2018-Aug-08 02:50     00 14 14.533875 -86 21 33.43525
 2018-Aug-08 02:51     00 14 14.493226 -86 21 33.48021
 2018-Aug-08 02:52     00 14 14.452572 -86 21 33.52516
 2018-Aug-08 02:53     00 14 14.411913 -86 21 33.57012
 2018-Aug-08 02:54     00 14 14.371250 -86 21 33.61507
 2018-Aug-08 02:55     00 14 14.330583 -86 21 33.66002
 2018-Aug-08 02:56     00 14 14.289912 -86 21 33.70496
 2018-Aug-08 02:57     00 14 14.249236 -86 21 33.74991
 2018-Aug-08 02:58     00 14 14.208556 -86 21 33.79486
 2018-Aug-08 02:59     00 14 14.167871 -86 21 33.83980
 2018-Aug-08 03:00     00 14 14.127182 -86 21 33.88474
 2018-Aug-08 03:01     00 14 14.086489 -86 21 33.92968
 2018-Aug-08 03:02     00 14 14.045791 -86 21 33.97462
 2018-Aug-08 03:03     00 14 14.005089 -86 21 34.01956
 2018-Aug-08 03:04     00 14 13.964383 -86 21 34.06449
 2018-Aug-08 03:05     00 14 13.923672 -86 21 34.10942
 2018-Aug-08 03:06     00 14 13.882957 -86 21 34.15436
 2018-Aug-08 03:07     00 14 13.842238 -86 21 34.19929
 2018-Aug-08 03:08     00 14 13.801514 -86 21 34.24421
 2018-Aug-08 03:09     00 14 13.760786 -86 21 34.28914
 2018-Aug-08 03:10     00 14 13.720054 -86 21 34.33407
 2018-Aug-08 03:11     00 14 13.679318 -86 21 34.37899
 2018-Aug-08 03:12     00 14 13.638577 -86 21 34.42391
 2018-Aug-08 03:13     00 14 13.597832 -86 21 34.46883
 2018-Aug-08 03:14     00 14 13.557083 -86 21 34.51375
 2018-Aug-08 03:15     00 14 13.516329 -86 21 34.55866
 2018-Aug-08 03:16     00 14 13.475571 -86 21 34.60358
 2018-Aug-08 03:17     00 14 13.434809 -86 21 34.64849
 2018-Aug-08 03:18     00 14 13.394043 -86 21 34.69340
 2018-Aug-08 03:19     00 14 13.353272 -86 21 34.73831
 2018-Aug-08 03:20     00 14 13.312497 -86 21 34.78321
 2018-Aug-08 03:21     00 14 13.271718 -86 21 34.82812
 2018-Aug-08 03:22     00 14 13.230935 -86 21 34.87302
 2018-Aug-08 03:23     00 14 13.190147 -86 21 34.91792
 2018-Aug-08 03:24     00 14 13.149356 -86 21 34.96282
 2018-Aug-08 03:25     00 14 13.108560 -86 21 35.00772
 2018-Aug-08 03:26     00 14 13.067759 -86 21 35.05261
 2018-Aug-08 03:27     00 14 13.026955 -86 21 35.09751
 2018-Aug-08 03:28     00 14 12.986147 -86 21 35.14240
 2018-Aug-08 03:29     00 14 12.945334 -86 21 35.18729
 2018-Aug-08 03:30     00 14 12.904517 -86 21 35.23217
 2018-Aug-08 03:31     00 14 12.863696 -86 21 35.27706
 2018-Aug-08 03:32     00 14 12.822871 -86 21 35.32194
 2018-Aug-08 03:33     00 14 12.782041 -86 21 35.36682
 2018-Aug-08 03:34     00 14 12.741208 -86 21 35.41170
 2018-Aug-08 03:35     00 14 12.700370 -86 21 35.45657
 2018-Aug-08 03:36     00 14 12.659528 -86 21 35.50145
 2018-Aug-08 03:37     00 14 12.618682 -86 21 35.54632
 2018-Aug-08 03:38     00 14 12.577832 -86 21 35.59119
 2018-Aug-08 03:39     00 14 12.536978 -86 21 35.63606
 2018-Aug-08 03:40     00 14 12.496120 -86 21 35.68092
 2018-Aug-08 03:41     00 14 12.455257 -86 21 35.72579
 2018-Aug-08 03:42     00 14 12.414391 -86 21 35.77065
 2018-Aug-08 03:43     00 14 12.373520 -86 21 35.81551
 2018-Aug-08 03:44     00 14 12.332646 -86 21 35.86036
 2018-Aug-08 03:45     00 14 12.291767 -86 21 35.90522
 2018-Aug-08 03:46     00 14 12.250884 -86 21 35.95007
 2018-Aug-08 03:47     00 14 12.209997 -86 21 35.99492
 2018-Aug-08 03:48     00 14 12.169106 -86 21 36.03977
 2018-Aug-08 03:49     00 14 12.128211 -86 21 36.08461
 2018-Aug-08 03:50     00 14 12.087313 -86 21 36.12946
 2018-Aug-08 03:51     00 14 12.046410 -86 21 36.17430
 2018-Aug-08 03:52     00 14 12.005503 -86 21 36.21914
 2018-Aug-08 03:53     00 14 11.964592 -86 21 36.26397
 2018-Aug-08 03:54     00 14 11.923677 -86 21 36.30881
 2018-Aug-08 03:55     00 14 11.882758 -86 21 36.35364
 2018-Aug-08 03:56     00 14 11.841835 -86 21 36.39847
 2018-Aug-08 03:57     00 14 11.800908 -86 21 36.44329
 2018-Aug-08 03:58     00 14 11.759977 -86 21 36.48812
 2018-Aug-08 03:59     00 14 11.719042 -86 21 36.53294
 2018-Aug-08 04:00     00 14 11.678103 -86 21 36.57776
 2018-Aug-08 04:01     00 14 11.637161 -86 21 36.62257
 2018-Aug-08 04:02     00 14 11.596214 -86 21 36.66739
 2018-Aug-08 04:03     00 14 11.555263 -86 21 36.71220
 2018-Aug-08 04:04     00 14 11.514309 -86 21 36.75701
 2018-Aug-08 04:05     00 14 11.473350 -86 21 36.80181
 2018-Aug-08 04:06     00 14 11.432388 -86 21 36.84662
 2018-Aug-08 04:07     00 14 11.391422 -86 21 36.89142
 2018-Aug-08 04:08     00 14 11.350452 -86 21 36.93622
 2018-Aug-08 04:09     00 14 11.309478 -86 21 36.98102
 2018-Aug-08 04:10     00 14 11.268500 -86 21 37.02581
 2018-Aug-08 04:11     00 14 11.227519 -86 21 37.07060
 2018-Aug-08 04:12     00 14 11.186533 -86 21 37.11539
 2018-Aug-08 04:13     00 14 11.145544 -86 21 37.16018
 2018-Aug-08 04:14     00 14 11.104551 -86 21 37.20496
 2018-Aug-08 04:15     00 14 11.063554 -86 21 37.24974
 2018-Aug-08 04:16     00 14 11.022553 -86 21 37.29452
 2018-Aug-08 04:17     00 14 10.981549 -86 21 37.33929
 2018-Aug-08 04:18     00 14 10.940540 -86 21 37.38407
 2018-Aug-08 04:19     00 14 10.899528 -86 21 37.42884
 2018-Aug-08 04:20     00 14 10.858512 -86 21 37.47360
 2018-Aug-08 04:21     00 14 10.817493 -86 21 37.51837
 2018-Aug-08 04:22     00 14 10.776470 -86 21 37.56313
 2018-Aug-08 04:23     00 14 10.735442 -86 21 37.60789
 2018-Aug-08 04:24     00 14 10.694412 -86 21 37.65265
 2018-Aug-08 04:25     00 14 10.653377 -86 21 37.69740
 2018-Aug-08 04:26     00 14 10.612339 -86 21 37.74215
 2018-Aug-08 04:27     00 14 10.571297 -86 21 37.78690
 2018-Aug-08 04:28     00 14 10.530252 -86 21 37.83164
 2018-Aug-08 04:29     00 14 10.489202 -86 21 37.87639
 2018-Aug-08 04:30     00 14 10.448149 -86 21 37.92112
 2018-Aug-08 04:31     00 14 10.407093 -86 21 37.96586
 2018-Aug-08 04:32     00 14 10.366033 -86 21 38.01060
 2018-Aug-08 04:33     00 14 10.324969 -86 21 38.05533
